{
  "type": "FeatureCollection",
  "metadata": {
    "generated": 1791480000000,
    "url": "https://earthquake.usgs.gov/earthquakes/feed/v1.0/summary/all_month.geojson",
    "title": "USGS Earthquakes Template - Panama Region",
    "status": 200,
    "count": 1
  },
  "features": [
    {
      "type": "Feature",
      "id": "us7000template1",
      "properties": {
        "mag": 4.8,
        "place": "12 km S de Puerto Armuelles, Panama",
        "time": 1791460000000,
        "updated": 1791465000000,
        "tz": null,
        "url": "https://earthquake.usgs.gov/earthquakes/event/us7000template1",
        "detail": null,
        "felt": null,
        "cdi": null,
        "mmi": null,
        "alert": null,
        "status": "reviewed",
        "tsunami": 0,
        "sig": 354,
        "net": "us",
        "code": "7000template1",
        "ids": ",us7000template1,",
        "sources": ",us,",
        "types": ",origin,phase-data,",
        "nst": null,
        "dmin": null,
        "rms": 0.65,
        "gap": 110,
        "magType": "mww",
        "type": "earthquake",
        "title": "M 4.8 - 12 km S de Puerto Armuelles, Panama"
      },
      "geometry": {
        "type": "Point",
        "coordinates": [-82.86, 8.17, 18.5]
      }
    }
  ]
}
